NORAD_CAT_ID,OBJECT_NAME,OBJECT_TYPE,EPOCH,MEAN_MOTION,ECCENTRICITY,INCLINATION,RA_OF_ASC_NODE,ARG_OF_PERICENTER,MEAN_ANOMALY,BSTAR,MEAN_MOTION_DOT,MEAN_MOTION_DDOT,TLE_LINE0,TLE_LINE1,TLE_LINE2,SEMIMAJOR_AXIS,PERIOD,APOGEE,PERIGEE,DECAYED
51777.0,STARLINK-3625,PAYLOAD,2023-01-28 20:18:57,15.0883503,0.0001166,53.216,38.127,94.6991,265.4134,6.4267e-05,7.35e-06,0.0,0 STARLINK-3625,1 51777U 22017K   23028.84650448  .00000735  00000-0  64267-4 0  9997,2 51777  53.2160  38.1270 0001166  94.6991 265.4134 15.08835030 51126,6917.896,95.438,540.567,538.954,0.0
51777.0,STARLINK-3625,PAYLOAD,2023-01-29 07:26:39,15.08842196,0.0001213,53.2159,36.0446,104.1681,255.9446,0.00011217,1.498e-05,0.0,0 STARLINK-3625,1 51777U 22017K   23029.31017899  .00001498  00000-0  11217-3 0  9990,2 51777  53.2159  36.0446 0001213 104.1681 255.9446 15.08842196 52663,6917.874,95.437,540.578,538.9,0.0
51777.0,STARLINK-3625,PAYLOAD,2023-01-29 20:09:45,15.08827276,0.0001251,53.2158,33.6653,115.0922,245.02,0.00018775,2.7e-05,0.0,0 STARLINK-3625,1 51777U 22017K   23029.84010526  .00002700  00000-0  18775-3 0  9991,2 51777  53.2158  33.6653 0001251 115.0922 245.0200 15.08827276 52745,6917.919,95.438,540.65,538.919,0.0
51777.0,STARLINK-3625,PAYLOAD,2023-01-30 10:28:13,15.08835485,0.000111,53.216,30.9895,99.9095,260.2022,8.3557e-05,1.042e-05,0.0,0 STARLINK-3625,1 51777U 22017K   23030.43626634  .00001042  00000-0  83557-4 0  9990,2 51777  53.2160  30.9895 0001110  99.9095 260.2022 15.08835485 51360,6917.894,95.438,540.527,538.991,0.0
51777.0,STARLINK-3625,PAYLOAD,2023-01-30 23:11:18,15.08836768,0.0001139,53.2161,28.6102,101.8546,258.2574,7.5595e-05,9.15e-06,0.0,0 STARLINK-3625,1 51777U 22017K   23030.96618667  .00000915  00000-0  75595-4 0  9996,2 51777  53.2161  28.6102 0001139 101.8546 258.2574 15.08836768 52917,6917.89,95.438,540.543,538.967,0.0
51777.0,STARLINK-3625,PAYLOAD,2023-01-31 08:43:36,15.08844956,0.0001153,53.2159,26.8257,99.3386,260.7737,0.0001182,1.594e-05,0.0,0 STARLINK-3625,1 51777U 22017K   23031.36362045  .00001594  00000-0  11820-3 0  9991,2 51777  53.2159  26.8257 0001153  99.3386 260.7737 15.08844956 52977,6917.865,95.437,540.528,538.933,0.0
51777.0,STARLINK-3625,PAYLOAD,2023-02-01 08:34:23,15.08846155,0.0001272,53.2161,22.3652,90.5298,269.584,0.00017106,2.436e-05,0.0,0 STARLINK-3625,1 51777U 22017K   23032.35721897  .00002436  00000-0  17106-3 0  9994,2 51777  53.2161  22.3652 0001272  90.5298 269.5840 15.08846155 51656,6917.862,95.437,540.607,538.847,0.0
51777.0,STARLINK-3625,PAYLOAD,2023-02-02 03:39:01,15.08842688,0.0001386,53.2176,18.7972,106.2648,253.8497,3.0102e-06,-2.4e-06,0.0,0 STARLINK-3625,1 51777U 22017K   23033.15210511 -.00000240  00000-0  30102-5 0  9994,2 51777  53.2176  18.7972 0001386 106.2648 253.8497 15.08842688 53244,6917.872,95.437,540.696,538.778,0.0
51777.0,STARLINK-3625,PAYLOAD,2023-02-02 05:14:25,15.08842214,0.0001472,53.2162,18.499,102.4152,257.7005,4.3587e-05,4.06e-06,0.0,0 STARLINK-3625,1 51777U 22017K   23033.21834501  .00000406  00000-0  43587-4 0  9995,2 51777  53.2162  18.4990 0001472 102.4152 257.7005 15.08842214 51780,6917.874,95.437,540.757,538.72,0.0
51777.0,STARLINK-3625,PAYLOAD,2023-02-03 05:05:11,15.08851818,0.0001208,53.2164,14.0389,93.4182,266.6948,0.00011083,1.477e-05,0.0,0 STARLINK-3625,1 51777U 22017K   23034.21193568  .00001477  00000-0  11083-3 0  9991,2 51777  53.2164  14.0389 0001208  93.4182 266.6948 15.08851818 53401,6917.844,95.437,540.545,538.874,0.0
51777.0,STARLINK-3625,PAYLOAD,2023-02-04 04:55:59,15.0883861,0.0001125,53.2166,9.5797,83.8704,276.2417,5.6102e-05,6.05e-06,0.0,0 STARLINK-3625,1 51777U 22017K   23035.20554646  .00000605  00000-0  56102-4 0  9993,2 51777  53.2166   9.5797 0001125  83.8704 276.2417 15.08838610 53555,6917.885,95.438,540.528,538.971,0.0
51777.0,STARLINK-3625,PAYLOAD,2023-02-04 22:25:13,15.08839909,0.0001264,53.2165,6.3087,94.3687,265.745,-3.0347e-05,-7.71e-06,0.0,0 STARLINK-3625,1 51777U 22017K   23035.93418917 -.00000771  00000-0 -30347-4 0  9992,2 51777  53.2165   6.3087 0001264  94.3687 265.7450 15.08839909 52193,6917.881,95.438,540.62,538.871,0.0
51777.0,STARLINK-3625,PAYLOAD,2023-02-05 07:57:31,15.08850539,0.0001237,53.2166,4.5238,94.378,265.7354,7.3327e-05,8.8e-06,0.0,0 STARLINK-3625,1 51777U 22017K   23036.33161887  .00000880  00000-0  73327-4 0  9992,2 51777  53.2166   4.5238 0001237  94.3780 265.7354 15.08850539 53721,6917.848,95.437,540.569,538.857,0.0
51777.0,STARLINK-3625,PAYLOAD,2023-02-05 22:16:01,15.08832895,0.0001177,53.2159,1.8456,79.0125,281.1,4.345e-05,4.04e-06,0.0,0 STARLINK-3625,1 51777U 22017K   23036.92779218  .00000404  00000-0  43450-4 0  9996,2 51777  53.2159   1.8456 0001177  79.0125 281.1000 15.08832895 52343,6917.902,95.438,540.581,538.953,0.0
51777.0,STARLINK-3625,PAYLOAD,2023-02-06 06:12:56,15.08844901,0.0001077,53.2166,0.3606,86.4416,273.6699,0.0001634,2.314e-05,0.0,0 STARLINK-3625,1 51777U 22017K   23037.25898403  .00002314  00000-0  16340-3 0  9990,2 51777  53.2166   0.3606 0001077  86.4416 273.6699 15.08844901 53865,6917.865,95.437,540.475,538.985,0.0
51777.0,STARLINK-3625,PAYLOAD,2023-02-06 07:48:19,15.08845942,0.0001078,53.2167,0.0636,85.8624,274.2491,0.00017344,2.474e-05,0.0,0 STARLINK-3625,1 51777U 22017K   23037.32522380  .00002474  00000-0  17344-3 0  9998,2 51777  53.2167   0.0636 0001078  85.8624 274.2491 15.08845942 52403,6917.862,95.437,540.473,538.981,0.0
51777.0,STARLINK-3625,PAYLOAD,2023-02-06 20:31:24,15.08844083,0.000113,53.2166,357.6847,92.5464,267.5657,7.4848e-05,9.04e-06,0.0,0 STARLINK-3625,1 51777U 22017K   23037.85514510  .00000904  00000-0  74848-4 0  9991,2 51777  53.2166 357.6847 0001130  92.5464 267.5657 15.08844083 52485,6917.868,95.437,540.515,538.951,0.0
51777.0,STARLINK-3625,PAYLOAD,2023-02-06 22:06:47,15.08841469,0.0001095,53.2163,357.3865,89.7513,270.3605,3.4255e-05,2.57e-06,0.0,0 STARLINK-3625,1 51777U 22017K   23037.92138679  .00000257  00000-0  34255-4 0  9996,2 51777  53.2163 357.3865 0001095  89.7513 270.3605 15.08841469 53966,6917.876,95.437,540.498,538.983,0.0
51777.0,STARLINK-3625,PAYLOAD,2023-02-07 06:03:42,15.08857254,0.0001232,53.2169,355.8993,91.9539,268.1594,0.00036493,5.527e-05,0.0,0 STARLINK-3625,1 51777U 22017K   23038.25257955  .00005527  00000-0  36493-3 0  9992,2 51777  53.2169 355.8993 0001232  91.9539 268.1594 15.08857254 54011,6917.828,95.436,540.545,538.84,0.0
51777.0,STARLINK-3625,PAYLOAD,2023-02-08 05:54:29,15.08860579,0.0001281,53.2169,351.4381,93.2102,266.9037,0.00050848,7.818e-05,0.0,0 STARLINK-3625,1 51777U 22017K   23039.24617747  .00007818  00000-0  50848-3 0  9996,2 51777  53.2169 351.4381 0001281  93.2102 266.9037 15.08860579 54167,6917.817,95.436,540.569,538.796,0.0
51777.0,STARLINK-3625,PAYLOAD,2023-02-09 05:45:17,15.08844405,0.0001338,53.2157,346.9774,100.7782,259.336,0.0012915,0.00020328,0.0,0 STARLINK-3625,1 51777U 22017K   23040.23978874  .00020328  00000-0  12915-2 0  9991,2 51777  53.2157 346.9774 0001338 100.7782 259.3360 15.08844405 54312,6917.867,95.437,540.658,538.806,0.0
51777.0,STARLINK-3625,PAYLOAD,2023-02-09 15:17:36,15.08836428,0.00012,53.2155,345.1951,96.5371,263.5758,0.00072884,0.00011329,0.0,0 STARLINK-3625,1 51777U 22017K   23040.63723273  .00011329  00000-0  72884-3 0  9999,2 51777  53.2155 345.1951 0001200  96.5371 263.5758 15.08836428 54372,6917.891,95.438,540.586,538.926,0.0
51777.0,STARLINK-3625,PAYLOAD,2023-02-09 21:39:09,15.08828441,0.0001207,53.2159,344.0031,123.8948,236.2159,0.00093576,0.00014631,0.0,0 STARLINK-3625,1 51777U 22017K   23040.90219336  .00014631  00000-0  93576-3 0  9999,2 51777  53.2159 344.0031 0001207 123.8948 236.2159 15.08828441 54417,6917.916,95.438,540.616,538.946,0.0
51777.0,STARLINK-3625,PAYLOAD,2023-02-10 02:25:19,15.08833251,9.94e-05,53.2163,343.1142,86.5229,273.5877,0.0011424,0.00017937,0.0,0 STARLINK-3625,1 51777U 22017K   23041.10091712  .00017937  00000-0  11424-2 0  9991,2 51777  53.2163 343.1142 0000994  86.5229 273.5877 15.08833251 52979,6917.901,95.438,540.454,539.078,0.0
51777.0,STARLINK-3625,PAYLOAD,2023-02-10 05:36:05,15.08849001,0.0001127,53.2157,342.5203,56.9898,303.1202,0.00098132,0.00015368,0.0,0 STARLINK-3625,1 51777U 22017K   23041.23339470  .00015368  00000-0  98132-3 0  9999,2 51777  53.2157 342.5203 0001127  56.9898 303.1202 15.08849001 54463,6917.853,95.437,540.498,538.938,0.0
51777.0,STARLINK-3625,PAYLOAD,2023-02-11 11:48:17,15.09055186,8.93e-05,53.2168,336.8682,105.8736,254.2354,0.0051228,0.00082685,0.0,0 STARLINK-3625,1 51777U 22017K   23042.49186466  .00082685  00000-0  51228-2 0  9993,2 51777  53.2168 336.8682 0000893 105.8736 254.2354 15.09055186 54655,6917.223,95.424,539.705,538.47,0.0
51777.0,STARLINK-3625,PAYLOAD,2023-02-11 19:45:02,15.09338928,0.0001468,53.2165,335.3817,32.2037,327.9044,0.011037,0.00182426,0.0,0 STARLINK-3625,1 51777U 22017K   23042.82294124  .00182426  00000-0  11037-1 0  9998,2 51777  53.2165 335.3817 0001468  32.2037 327.9044 15.09338928 54700,6916.356,95.406,539.236,537.205,0.0
51777.0,STARLINK-3625,PAYLOAD,2023-02-12 06:52:23,15.0957959,0.0001036,53.215,333.2939,88.5227,271.5884,0.008828,0.0014607,0.0,0 STARLINK-3625,1 51777U 22017K   23043.28637733  .00146070  00000-0  88280-2 0  9996,2 51777  53.2150 333.2939 0001036  88.5227 271.5884 15.09579590 54777,6915.621,95.391,538.202,536.769,0.0
51777.0,STARLINK-3625,PAYLOAD,2023-02-13 05:07:02,15.09658172,5.94e-05,53.2167,329.1311,285.3552,74.7375,0.001056,0.00016939,0.0,0 STARLINK-3625,1 51777U 22017K   23044.21322064  .00016939  00000-0  10560-2 0  9994,2 51777  53.2167 329.1311 0000594 285.3552  74.7375 15.09658172 54917,6915.381,95.386,537.656,536.835,0.0
51777.0,STARLINK-3625,PAYLOAD,2023-02-13 11:28:24,15.0959731,6.64e-05,53.216,327.9375,185.6391,174.4595,-0.0012339,-0.00020283,0.0,0 STARLINK-3625,1 51777U 22017K   23044.47805810 -.00020283  00000-0 -12339-2 0  9992,2 51777  53.2160 327.9375 0000664 185.6391 174.4595 15.09597310 54959,6915.567,95.39,537.891,536.972,0.0
